{
  "type": "FeatureCollection",
  "features": [
    {
      "type": "Feature",
      "properties": {
        "norad_id": 32419,
        "name": "FENGYUN 1C DEB",
        "group": "fengyun-1c-debris",
        "lat": 6.27887218339919,
        "lon": -83.1138401628606,
        "alt_km": 693.9526020193935,
        "timestamp": "2025-12-07T22:37:43.366571+00:00",
        "meta_object_name": "FENGYUN 1C DEB",
        "meta_object_id": "1999-025DAF",
        "meta_epoch": "2025-12-07T02:09:41.819904",
        "meta_mean_motion": 14.09880398,
        "meta_eccentricity": 0.02845856,
        "meta_inclination": 97.9434,
        "meta_ra_of_asc_node": 277.012,
        "meta_arg_of_pericenter": 45.3064,
        "meta_mean_anomaly": 317.0914,
        "meta_ephemeris_type": 0,
        "meta_classification_type": "U",
        "meta_norad_cat_id": 32419,
        "meta_element_set_no": 999,
        "meta_rev_at_epoch": 63491,
        "meta_bstar": 0.0013007536,
        "meta_mean_motion_dot": 3.3e-05,
        "meta_mean_motion_ddot": 0,
        "tle_line1": "1 32419U 99025DAF 25341.09006736  .00003300  00000+0  13008-2 0  9999",
        "tle_line2": "2 32419  97.9434 277.0120 0284585  45.3064 317.0914 14.09880398634918"
      },
      "geometry": {
        "type": "Point",
        "coordinates": [
          -83.1138401628606,
          6.27887218339919
        ]
      }
    },
    {
      "type": "Feature",
      "properties": {
        "norad_id": 32422,
        "name": "FENGYUN 1C DEB",
        "group": "fengyun-1c-debris",
        "lat": 18.248987943568693,
        "lon": 111.52835595671529,
        "alt_km": 828.3704243580123,
        "timestamp": "2025-12-07T22:37:43.366582+00:00",
        "meta_object_name": "FENGYUN 1C DEB",
        "meta_object_id": "1999-025DAJ",
        "meta_epoch": "2025-12-04T15:31:47.977248",
        "meta_mean_motion": 13.97990532,
        "meta_eccentricity": 0.0298457,
        "meta_inclination": 97.839,
        "meta_ra_of_asc_node": 111.3103,
        "meta_arg_of_pericenter": 315.8361,
        "meta_mean_anomaly": 41.9322,
        "meta_ephemeris_type": 0,
        "meta_classification_type": "U",
        "meta_norad_cat_id": 32422,
        "meta_element_set_no": 999,
        "meta_rev_at_epoch": 63020,
        "meta_bstar": 0.00049372,
        "meta_mean_motion_dot": 9.86e-06,
        "meta_mean_motion_ddot": 0,
        "tle_line1": "1 32422U 99025DAJ 25338.64708307  .00000986  00000+0  49372-3 0  9994",
        "tle_line2": "2 32422  97.8390 111.3103 0298457 315.8361  41.9322 13.97990532630203"
      },
      "geometry": {
        "type": "Point",
        "coordinates": [
          111.52835595671529,
          18.248987943568693
        ]
      }
    },
    {
      "type": "Feature",
      "properties": {
        "norad_id": 32425,
        "name": "FENGYUN 1C DEB",
        "group": "fengyun-1c-debris",
        "lat": -5.520261439639325,
        "lon": 132.1070583496093,
        "alt_km": 711.2204191865931,
        "timestamp": "2025-12-07T22:37:43.366592+00:00",
        "meta_object_name": "FENGYUN 1C DEB",
        "meta_object_id": "1999-025DAM",
        "meta_epoch": "2025-12-06T04:16:42.340512",
        "meta_mean_motion": 14.16717033,
        "meta_eccentricity": 0.02322591,
        "meta_inclination": 96.701,
        "meta_ra_of_asc_node": 130.1238,
        "meta_arg_of_pericenter": 319.3009,
        "meta_mean_anomaly": 39.1014,
        "meta_ephemeris_type": 0,
        "meta_classification_type": "U",
        "meta_norad_cat_id": 32425,
        "meta_element_set_no": 999,
        "meta_rev_at_epoch": 69442,
        "meta_bstar": 0.00073001869,
        "meta_mean_motion_dot": 1.869e-05,
        "meta_mean_motion_ddot": 0,
        "tle_line1": "1 32425U 99025DAM 25340.17826783  .00001869  00000+0  73002-3 0  9995",
        "tle_line2": "2 32425  96.7010 130.1238 0232259 319.3009  39.1014 14.16717033694423"
      },
      "geometry": {
        "type": "Point",
        "coordinates": [
          132.1070583496093,
          -5.520261439639325
        ]
      }
    },
    {
      "type": "Feature",
      "properties": {
        "norad_id": 32430,
        "name": "FENGYUN 1C DEB",
        "group": "fengyun-1c-debris",
        "lat": -16.35507746329586,
        "lon": -175.44361824597678,
        "alt_km": 977.4138380266668,
        "timestamp": "2025-12-07T22:37:43.366603+00:00",
        "meta_object_name": "FENGYUN 1C DEB",
        "meta_object_id": "1999-025DAS",
        "meta_epoch": "2025-11-28T08:01:51.379680",
        "meta_mean_motion": 13.700237,
        "meta_eccentricity": 0.03669598,
        "meta_inclination": 98.6995,
        "meta_ra_of_asc_node": 358.4209,
        "meta_arg_of_pericenter": 308.4,
        "meta_mean_anomaly": 48.4718,
        "meta_ephemeris_type": 0,
        "meta_classification_type": "U",
        "meta_norad_cat_id": 32430,
        "meta_element_set_no": 999,
        "meta_rev_at_epoch": 91006,
        "meta_bstar": 0.0013292219,
        "meta_mean_motion_dot": 1.837e-05,
        "meta_mean_motion_ddot": 0,
        "tle_line1": "1 32430U 99025DAS 25332.33462245  .00001837  00000+0  13292-2 0  9998",
        "tle_line2": "2 32430  98.6995 358.4209 0366959 308.4000  48.4718 13.70023700910065"
      },
      "geometry": {
        "type": "Point",
        "coordinates": [
          -175.44361824597678,
          -16.35507746329586
        ]
      }
    },
    {
      "type": "Feature",
      "properties": {
        "norad_id": 32432,
        "name": "FENGYUN 1C DEB",
        "group": "fengyun-1c-debris",
        "lat": 60.346638818624456,
        "lon": 3.631686514911669,
        "alt_km": 733.0931478792991,
        "timestamp": "2025-12-07T22:37:43.366613+00:00",
        "meta_object_name": "FENGYUN 1C DEB",
        "meta_object_id": "1999-025DAU",
        "meta_epoch": "2025-12-06T08:19:16.697856",
        "meta_mean_motion": 14.52336572,
        "meta_eccentricity": 0.01729865,
        "meta_inclination": 98.17,
        "meta_ra_of_asc_node": 16.6935,
        "meta_arg_of_pericenter": 325.5072,
        "meta_mean_anomaly": 33.4994,
        "meta_ephemeris_type": 0,
        "meta_classification_type": "U",
        "meta_norad_cat_id": 32432,
        "meta_element_set_no": 999,
        "meta_rev_at_epoch": 70602,
        "meta_bstar": 0.0028068549,
        "meta_mean_motion_dot": 0.00013869,
        "meta_mean_motion_ddot": 0,
        "tle_line1": "1 32432U 99025DAU 25340.34672104  .00013869  00000+0  28069-2 0  9993",
        "tle_line2": "2 32432  98.1700  16.6935 0172986 325.5072  33.4994 14.52336572706023"
      },
      "geometry": {
        "type": "Point",
        "coordinates": [
          3.631686514911669,
          60.346638818624456
        ]
      }
    },
    {
      "type": "Feature",
      "properties": {
        "norad_id": 32440,
        "name": "FENGYUN 1C DEB",
        "group": "fengyun-1c-debris",
        "lat": 35.9195838242487,
        "lon": 24.185291790554835,
        "alt_km": 843.4182634281979,
        "timestamp": "2025-12-07T22:37:43.366624+00:00",
        "meta_object_name": "FENGYUN 1C DEB",
        "meta_object_id": "1999-025DBC",
        "meta_epoch": "2025-12-05T08:12:44.739072",
        "meta_mean_motion": 13.61195229,
        "meta_eccentricity": 0.03213757,
        "meta_inclination": 99.1546,
        "meta_ra_of_asc_node": 195.0359,
        "meta_arg_of_pericenter": 110.0631,
        "meta_mean_anomaly": 253.5405,
        "meta_ephemeris_type": 0,
        "meta_classification_type": "U",
        "meta_norad_cat_id": 32440,
        "meta_element_set_no": 999,
        "meta_rev_at_epoch": 60185,
        "meta_bstar": 0.0046022853,
        "meta_mean_motion_dot": 4.901e-05,
        "meta_mean_motion_ddot": 0,
        "tle_line1": "1 32440U 99025DBC 25339.34218448  .00004901  00000+0  46023-2 0  9994",
        "tle_line2": "2 32440  99.1546 195.0359 0321375 110.0631 253.5405 13.61195229601857"
      },
      "geometry": {
        "type": "Point",
        "coordinates": [
          24.185291790554835,
          35.9195838242487
        ]
      }
    },
    {
      "type": "Feature",
      "properties": {
        "norad_id": 32447,
        "name": "FENGYUN 1C DEB",
        "group": "fengyun-1c-debris",
        "lat": 31.188380319799524,
        "lon": -176.32099146755323,
        "alt_km": 909.3738435888981,
        "timestamp": "2025-12-07T22:37:43.366634+00:00",
        "meta_object_name": "FENGYUN 1C DEB",
        "meta_object_id": "1999-025DBK",
        "meta_epoch": "2025-12-04T19:57:48.676032",
        "meta_mean_motion": 13.96007618,
        "meta_eccentricity": 0.00801771,
        "meta_inclination": 98.9313,
        "meta_ra_of_asc_node": 355.1998,
        "meta_arg_of_pericenter": 62.9072,
        "meta_mean_anomaly": 298.0242,
        "meta_ephemeris_type": 0,
        "meta_classification_type": "U",
        "meta_norad_cat_id": 32447,
        "meta_element_set_no": 999,
        "meta_rev_at_epoch": 67768,
        "meta_bstar": 0.00045058659,
        "meta_mean_motion_dot": 5.92e-06,
        "meta_mean_motion_ddot": 0,
        "tle_line1": "1 32447U 99025DBK 25338.83181338  .00000592  00000+0  45059-3 0  9992",
        "tle_line2": "2 32447  98.9313 355.1998 0080177  62.9072 298.0242 13.96007618677686"
      },
      "geometry": {
        "type": "Point",
        "coordinates": [
          -176.32099146755323,
          31.188380319799524
        ]
      }
    }
  ]
}